NORAD_CAT_ID,OBJECT_NAME,OBJECT_TYPE,EPOCH,MEAN_MOTION,ECCENTRICITY,INCLINATION,RA_OF_ASC_NODE,ARG_OF_PERICENTER,MEAN_ANOMALY,BSTAR,MEAN_MOTION_DOT,MEAN_MOTION_DDOT,TLE_LINE0,TLE_LINE1,TLE_LINE2,SEMIMAJOR_AXIS,PERIOD,APOGEE,PERIGEE,DECAYED
53151.0,STARLINK-4040,PAYLOAD,2022-07-21 18:00:00,15.89057145,0.003629,53.2174,26.5921,52.4951,46.9236,-0.0041636,-0.01288681,0.00047166,0 STARLINK-4040,1 53151U 22083V   22202.75001157 -.01288681  47166-3 -41636-2 0  9999,2 53151  53.2174  26.5921 0036290  52.4951  46.9236 15.89057145  1309,6683.062,90.62,329.18,280.67400000000004,0.0
53151.0,STARLINK-4040,PAYLOAD,2022-07-22 04:00:00,15.88001423,0.0031285,53.2175,24.4827,52.0839,271.5115,-0.0047574,-0.01373489,0.00052459,0 STARLINK-4040,1 53151U 22083V   22203.16667824 -.01373489  52459-3 -47574-2 0  9993,2 53151  53.2175  24.4827 0031285  52.0839 271.5115 15.88001423  1367,6686.024,90.68,328.806,286.972,0.0
53151.0,STARLINK-4040,PAYLOAD,2022-07-22 06:00:00,15.87750592,0.0030516,53.2177,24.0607,51.7147,28.5325,-0.0045996,-0.01309225,0.0004796,0 STARLINK-4040,1 53151U 22083V   22203.25001157 -.01309225  47960-3 -45996-2 0  9998,2 53151  53.2177  24.0607 0030516  51.7147  28.5325 15.87750592  1309,6686.728,90.694,328.9980000000001,288.188,0.0
53151.0,STARLINK-4040,PAYLOAD,2022-07-22 12:00:00,15.87091915,0.0027813,53.2177,22.7967,51.0407,18.7317,-0.0047877,-0.01309578,0.00047695,0 STARLINK-4040,1 53151U 22083V   22203.50001157 -.01309578  47695-3 -47877-2 0  9992,2 53151  53.2177  22.7967 0027813  51.0407  18.7317 15.87091915  1412,6688.578,90.732,329.046,291.84,0.0
53151.0,STARLINK-4040,PAYLOAD,2022-07-22 20:00:01,15.86236814,0.0024396,53.2175,21.1163,49.8294,125.0432,-0.0052253,-0.01359122,0.00050641,0 STARLINK-4040,1 53151U 22083V   22203.83334491 -.01359122  50641-3 -52253-2 0  9997,2 53151  53.2175  21.1163 0024396  49.8294 125.0432 15.86236814  1477,6690.981,90.781,329.17,296.523,0.0
53151.0,STARLINK-4040,PAYLOAD,2022-07-22 22:00:00,15.86030075,0.0022889,53.2175,20.6963,49.974,241.0067,-0.0054055,-0.01387326,0.00052476,0 STARLINK-4040,1 53151U 22083V   22203.91667824 -.01387326  52476-3 -54055-2 0  9992,2 53151  53.2175  20.6963 0022889  49.9740 241.0067 15.86030075  1307,6691.563,90.793,328.744,298.112,0.0
53151.0,STARLINK-4040,PAYLOAD,2022-07-23 04:00:00,15.85375599,0.0019754,53.2174,19.4346,50.7845,228.1369,-0.0056517,-0.01229582,0.0,0 STARLINK-4040,1 53151U 22083V   22204.16667824 -.01229582  00000-0 -56517-2 0  9997,2 53151  53.2174  19.4346 0019754  50.7845 228.1369 15.85375599  1527,6693.404,90.83,328.492,302.047,0.0
53151.0,STARLINK-4040,PAYLOAD,2022-07-23 14:00:01,15.84247568,0.0015479,53.2177,17.3365,48.2762,89.3032,-0.0057323,-0.01177462,0.0,0 STARLINK-4040,1 53151U 22083V   22204.58335648 -.01177462  00000-0 -57323-2 0  9994,2 53151  53.2177  17.3365 0015479  48.2762  89.3032 15.84247568  1592,6696.581,90.895,328.8119999999999,308.081,0.0
53151.0,STARLINK-4040,PAYLOAD,2022-07-23 22:00:00,15.83392818,0.0012300999999999,53.2176,15.6627,47.562,191.6196,-0.0062217,-0.01238217,0.0,0 STARLINK-4040,1 53151U 22083V   22204.91667824 -.01238217  00000-0 -62217-2 0  9999,2 53151  53.2176  15.6627 0012301  47.5620 191.6196 15.83392818  1304,6698.991,90.944,329.096,312.616,0.0
53151.0,STARLINK-4040,PAYLOAD,2022-07-24 14:00:01,15.8160791,0.000618,53.2175,12.3164,27.0759,52.3027,-0.0065122,-0.01188414,0.0,0 STARLINK-4040,1 53151U 22083V   22205.58334491 -.01188414  00000-0 -65122-2 0  9995,2 53151  53.2175  12.3164 0006180  27.0759  52.3027 15.81607910  1303,6704.03,91.047,330.038,321.752,0.0
53151.0,STARLINK-4040,PAYLOAD,2022-07-24 22:00:00,15.80739126,0.0004357,53.2173,10.6489,15.4397,162.4435,-0.0068899,-0.01203628,0.0,0 STARLINK-4040,1 53151U 22083V   22205.91667824 -.01203628  00000-0 -68899-2 0  9990,2 53151  53.2173  10.6489 0004357  15.4397 162.4435 15.80739126  1305,6706.486,91.097,331.273,325.4290000000001,0.0
53151.0,STARLINK-4040,PAYLOAD,2022-07-25 14:00:01,15.78987265,0.0003916,53.2178,7.3156,359.3797,12.3527,-0.0075342,-0.01212418,0.0,0 STARLINK-4040,1 53151U 22083V   22206.58334491 -.01212418  00000-0 -75342-2 0  9993,2 53151  53.2178   7.3156 0003916 359.3797  12.3527 15.78987265  1905,6711.446,91.198,335.939,330.68300000000005,0.0
53151.0,STARLINK-4040,PAYLOAD,2022-07-25 22:00:00,15.78103189,0.0003658,53.2174,5.6543,3.3424,103.7319,-0.0077748999999999,-0.01202752,0.0,0 STARLINK-4040,1 53151U 22083V   22206.91667824 -.01202752  00000-0 -77749-2 0  9992,2 53151  53.2174   5.6543 0003658   3.3424 103.7319 15.78103189  1301,6713.9519999999975,91.249,338.273,333.361,0.0
53151.0,STARLINK-4040,PAYLOAD,2022-07-26 04:00:01,15.77451179,0.000393,53.2175,4.4071,350.154,97.7975,-0.0080961,-0.0121473,0.0,0 STARLINK-4040,1 53151U 22083V   22207.16668981 -.01214730  00000-0 -80961-2 0  9994,2 53151  53.2175   4.4071 0003930 350.1540  97.7975 15.77451179  1999,6715.802,91.287,340.306,335.028,0.0
53151.0,STARLINK-4040,PAYLOAD,2022-07-26 14:00:01,15.76340386,0.0005779,53.2174,2.3344,322.1662,332.4240000000001,-0.008333,-0.01193712,0.0,0 STARLINK-4040,1 53151U 22083V   22207.58334491 -.01193712  00000-0 -83330-2 0  9995,2 53151  53.2174   2.3344 0005779 322.1662 332.4240 15.76340386  1300,6718.956999999999,91.351,344.705,336.939,0.0
53151.0,STARLINK-4040,PAYLOAD,2022-07-26 20:00:01,15.75679342,4.6e-05,53.2174,1.0934,296.8038,337.016,-0.008573,-0.01189335,0.0,0 STARLINK-4040,1 53151U 22083V   22207.83334491 -.01189335  00000-0 -85730-2 0  9995,2 53151  53.2174   1.0934 0000460 296.8038 337.0160 15.75679342  2104,6720.8359999999975,91.389,343.01,342.392,0.0
53151.0,STARLINK-4040,PAYLOAD,2022-07-26 22:00:00,15.75469963,2.65e-05,53.2171,0.6794,357.3213,29.4383,-0.0087735,-0.01203942,0.0,0 STARLINK-4040,1 53151U 22083V   22207.91667824 -.01203942  00000-0 -87735-2 0  9991,2 53151  53.2171   0.6794 0000265 357.3213  29.4383 15.75469963  1307,6721.431,91.401,343.474,343.11800000000005,0.0
53151.0,STARLINK-4040,PAYLOAD,2022-07-27 14:00:01,15.73579628,0.0001202,53.2177,357.3725,57.5426,150.409,-0.0036326,-0.00489766,0.0,0 STARLINK-4040,1 53151U 22083V   22208.58334491 -.00489766  00000-0 -36326-2 0  9995,2 53151  53.2177 357.3725 0001202  57.5426 150.4090 15.73579628  2226,6726.813,91.511,349.487,347.869,0.0
53151.0,STARLINK-4040,PAYLOAD,2022-07-27 22:00:00,15.73203737,0.0001087,53.2172,355.7233,73.5371,223.5818,1.8568e-05,1.987e-05,0.0,0 STARLINK-4040,1 53151U 22083V   22208.91667824  .00001987  00000-0  18568-4 0  9994,2 53151  53.2172 355.7233 0001087  73.5371 223.5818 15.73203737  2275,6727.885,91.533,350.481,349.01800000000014,0.0
53151.0,STARLINK-4040,PAYLOAD,2022-07-28 06:00:00,15.73193564,0.0001125,53.2181,354.0732,64.9856,321.1151,0.00055761,0.00078347,0.0,0 STARLINK-4040,1 53151U 22083V   22209.25001157  .00078347  00000-0  55761-3 0  9992,2 53151  53.2181 354.0732 0001125  64.9856 321.1151 15.73193564  2323,6727.9140000000025,91.534,350.535,349.022,0.0
53151.0,STARLINK-4040,PAYLOAD,2022-07-28 14:00:01,15.73278508,0.000128,53.2183,352.425,61.4781,53.5666,-0.0010600999999999,-0.00147315,0.0,0 STARLINK-4040,1 53151U 22083V   22209.58334491 -.00147315  00000-0 -10601-2 0  9995,2 53151  53.2183 352.4250 0001280  61.4781  53.5666 15.73278508  1309,6727.670999999999,91.529,350.397,348.675,0.0
53151.0,STARLINK-4040,PAYLOAD,2022-07-28 22:00:00,15.73149506,0.0001286999999999,53.2176,350.7761,51.2078,152.8027,8.943e-05,0.00011922,0.0,0 STARLINK-4040,1 53151U 22083V   22209.91667824  .00011922  00000-0  89430-4 0  9991,2 53151  53.2176 350.7761 0001287  51.2078 152.8027 15.73149506  1301,6728.0390000000025,91.536,350.77,349.038,0.0
53151.0,STARLINK-4040,PAYLOAD,2022-07-29 14:00:01,15.73205831,0.0001318,53.2189,347.4768,53.7017,328.096,-3.9789e-05,-6.201e-05,0.0,0 STARLINK-4040,1 53151U 22083V   22210.58334491 -.00006201  00000-0 -39789-4 0  9995,2 53151  53.2189 347.4768 0001318  53.7017 328.0960 15.73205831  2533,6727.879,91.533,350.63,348.857,0.0
53151.0,STARLINK-4040,PAYLOAD,2022-07-29 22:00:00,15.73208974,0.0001416,53.2185,345.82800000000015,47.5059,63.2186,0.00022752,0.00031443,0.0,0 STARLINK-4040,1 53151U 22083V   22210.91667824  .00031443  00000-0  22752-3 0  9996,2 53151  53.2185 345.8280 0001416  47.5059  63.2186 15.73208974  1309,6727.87,91.533,350.68699999999984,348.782,0.0
53151.0,STARLINK-4040,PAYLOAD,2022-07-30 04:00:00,15.73226004,0.000129,53.2187,344.5895,55.869,31.566,-8.1191e-05,-0.00012011,0.0,0 STARLINK-4040,1 53151U 22083V   22211.16667824 -.00012011  00000-0 -81191-4 0  9999,2 53151  53.2187 344.5895 0001290  55.8690  31.5660 15.73226004  2638,6727.821,91.532,350.55400000000014,348.8180000000001,0.0
53151.0,STARLINK-4040,PAYLOAD,2022-07-30 14:00:01,15.73199968,0.0001547,53.2186,342.5289,56.5632,232.0649,-6.9194e-05,-0.00010319,0.0,0 STARLINK-4040,1 53151U 22083V   22211.58334491 -.00010319  00000-0 -69194-4 0  9994,2 53151  53.2186 342.5289 0001547  56.5632 232.0649 15.73199968  1307,6727.895,91.533,350.801,348.719,0.0
53151.0,STARLINK-4040,PAYLOAD,2022-07-30 22:00:00,15.73213133,0.0001595999999999,53.2186,340.88,49.9937,327.5641,0.00017955,0.00024667,0.0,0 STARLINK-4040,1 53151U 22083V   22211.91667824  .00024667  00000-0  17955-3 0  9996,2 53151  53.2186 340.8800 0001596  49.9937 327.5641 15.73213133  1308,6727.858,91.532,350.796,348.649,0.0
53151.0,STARLINK-4040,PAYLOAD,2022-07-31 06:00:02,15.73205719,0.0001638,53.2174,339.2256,58.9484,47.5797,-2.2218000000000006e-05,-3.738e-05,0.0,0 STARLINK-4040,1 53151U 22083V   22212.25002315 -.00003738  00000-0 -22218-4 0  9999,2 53151  53.2174 339.2256 0001638  58.9484  47.5797 15.73205719  2804,6727.879,91.533,350.846,348.642,0.0
53151.0,STARLINK-4040,PAYLOAD,2022-07-31 14:00:01,15.73202063,0.0001727,53.2175,337.5777,56.4347,138.9626,2.9418e-05,3.510000000000001e-05,0.0,0 STARLINK-4040,1 53151U 22083V   22212.58334491  .00003510  00000-0  29418-4 0  9993,2 53151  53.2175 337.5777 0001727  56.4347 138.9626 15.73202063  1303,6727.889,91.533,350.916,348.592,0.0
